{
  "type": "FeatureCollection",
  "features": [
    {
      "type": "Feature",
      "properties": {
        "norad_id": 35441,
        "name": "COSMOS 2251 DEB",
        "group": "cosmos-2251-debris",
        "lat": 41.50203317861376,
        "lon": 114.14760193613137,
        "alt_km": 672.9503014440043,
        "timestamp": "2025-12-07T03:52:32.898706+00:00",
        "meta_object_name": "COSMOS 2251 DEB",
        "meta_object_id": "1993-036AKK",
        "meta_epoch": "2025-12-06T04:16:00.147072",
        "meta_mean_motion": 14.62424677,
        "meta_eccentricity": 0.00374671,
        "meta_inclination": 74.1332,
        "meta_ra_of_asc_node": 310.5953,
        "meta_arg_of_pericenter": 209.6577,
        "meta_mean_anomaly": 150.2468,
        "meta_ephemeris_type": 0,
        "meta_classification_type": "U",
        "meta_norad_cat_id": 35441,
        "meta_element_set_no": 999,
        "meta_rev_at_epoch": 87334,
        "meta_bstar": 0.0026738741,
        "meta_mean_motion_dot": 0.00013668,
        "meta_mean_motion_ddot": 0,
        "tle_line1": "1 35441U 93036AKK 25340.17777948  .00013668  00000+0  26739-2 0  9994",
        "tle_line2": "2 35441  74.1332 310.5953 0037467 209.6577 150.2468 14.62424677873342"
      },
      "geometry": {
        "type": "Point",
        "coordinates": [
          114.14760193613137,
          41.50203317861376
        ]
      }
    },
    {
      "type": "Feature",
      "properties": {
        "norad_id": 35442,
        "name": "COSMOS 2251 DEB",
        "group": "cosmos-2251-debris",
        "lat": -54.05442828387301,
        "lon": 86.93765105333812,
        "alt_km": 626.0192936309058,
        "timestamp": "2025-12-07T03:52:32.898717+00:00",
        "meta_object_name": "COSMOS 2251 DEB",
        "meta_object_id": "1993-036AKL",
        "meta_epoch": "2025-12-06T15:11:28.207968",
        "meta_mean_motion": 14.84048486,
        "meta_eccentricity": 0.00042143,
        "meta_inclination": 74.0268,
        "meta_ra_of_asc_node": 111.2533,
        "meta_arg_of_pericenter": 115.5873,
        "meta_mean_anomaly": 244.5741,
        "meta_ephemeris_type": 0,
        "meta_classification_type": "U",
        "meta_norad_cat_id": 35442,
        "meta_element_set_no": 999,
        "meta_rev_at_epoch": 87262,
        "meta_bstar": 0.0050286064,
        "meta_mean_motion_dot": 0.00042157,
        "meta_mean_motion_ddot": 0,
        "tle_line1": "1 35442U 93036AKL 25340.63296537  .00042157  00000+0  50286-2 0  9995",
        "tle_line2": "2 35442  74.0268 111.2533 0004214 115.5873 244.5741 14.84048486872623"
      },
      "geometry": {
        "type": "Point",
        "coordinates": [
          86.93765105333812,
          -54.05442828387301
        ]
      }
    },
    {
      "type": "Feature",
      "properties": {
        "norad_id": 35443,
        "name": "COSMOS 2251 DEB",
        "group": "cosmos-2251-debris",
        "lat": 73.70929435902701,
        "lon": 83.54455019384467,
        "alt_km": 528.8802734542933,
        "timestamp": "2025-12-07T03:52:32.898727+00:00",
        "meta_object_name": "COSMOS 2251 DEB",
        "meta_object_id": "1993-036AKM",
        "meta_epoch": "2025-12-06T06:35:54.030624",
        "meta_mean_motion": 14.95936925,
        "meta_eccentricity": 0.00736514,
        "meta_inclination": 73.9854,
        "meta_ra_of_asc_node": 344.6974,
        "meta_arg_of_pericenter": 128.494,
        "meta_mean_anomaly": 232.2881,
        "meta_ephemeris_type": 0,
        "meta_classification_type": "U",
        "meta_norad_cat_id": 35443,
        "meta_element_set_no": 999,
        "meta_rev_at_epoch": 86781,
        "meta_bstar": 0.0060867495,
        "meta_mean_motion_dot": 0.0007268,
        "meta_mean_motion_ddot": 0,
        "tle_line1": "1 35443U 93036AKM 25340.27493091  .00072680  00000+0  60867-2 0  9990",
        "tle_line2": "2 35443  73.9854 344.6974 0073651 128.4940 232.2881 14.95936925867813"
      },
      "geometry": {
        "type": "Point",
        "coordinates": [
          83.54455019384467,
          73.70929435902701
        ]
      }
    },
    {
      "type": "Feature",
      "properties": {
        "norad_id": 35445,
        "name": "COSMOS 2251 DEB",
        "group": "cosmos-2251-debris",
        "lat": 21.863974231319713,
        "lon": 124.04245139621607,
        "alt_km": 742.6289077745869,
        "timestamp": "2025-12-07T03:52:32.898738+00:00",
        "meta_object_name": "COSMOS 2251 DEB",
        "meta_object_id": "1993-036AKP",
        "meta_epoch": "2025-12-06T07:25:17.154912",
        "meta_mean_motion": 14.58941394,
        "meta_eccentricity": 0.01435699,
        "meta_inclination": 74.0371,
        "meta_ra_of_asc_node": 312.2612,
        "meta_arg_of_pericenter": 40.8351,
        "meta_mean_anomaly": 320.3464,
        "meta_ephemeris_type": 0,
        "meta_classification_type": "U",
        "meta_norad_cat_id": 35445,
        "meta_element_set_no": 999,
        "meta_rev_at_epoch": 87235,
        "meta_bstar": 0.0033112622,
        "meta_mean_motion_dot": 0.0001794,
        "meta_mean_motion_ddot": 0,
        "tle_line1": "1 35445U 93036AKP 25340.30922633  .00017940  00000+0  33113-2 0  9997",
        "tle_line2": "2 35445  74.0371 312.2612 0143569  40.8351 320.3464 14.58941394872356"
      },
      "geometry": {
        "type": "Point",
        "coordinates": [
          124.04245139621607,
          21.863974231319713
        ]
      }
    },
    {
      "type": "Feature",
      "properties": {
        "norad_id": 35446,
        "name": "COSMOS 2251 DEB",
        "group": "cosmos-2251-debris",
        "lat": -70.94262040474624,
        "lon": -87.17022401838828,
        "alt_km": 769.1194414464326,
        "timestamp": "2025-12-07T03:52:32.898748+00:00",
        "meta_object_name": "COSMOS 2251 DEB",
        "meta_object_id": "1993-036AKQ",
        "meta_epoch": "2025-12-05T17:34:52.262112",
        "meta_mean_motion": 14.54618421,
        "meta_eccentricity": 0.00744002,
        "meta_inclination": 74.0466,
        "meta_ra_of_asc_node": 331.4309,
        "meta_arg_of_pericenter": 91.6694,
        "meta_mean_anomaly": 269.2992,
        "meta_ephemeris_type": 0,
        "meta_classification_type": "U",
        "meta_norad_cat_id": 35446,
        "meta_element_set_no": 999,
        "meta_rev_at_epoch": 87906,
        "meta_bstar": 0.00018901942,
        "meta_mean_motion_dot": 8.08e-06,
        "meta_mean_motion_ddot": 0,
        "tle_line1": "1 35446U 93036AKQ 25339.73254933  .00000808  00000+0  18902-3 0  9999",
        "tle_line2": "2 35446  74.0466 331.4309 0074400  91.6694 269.2992 14.54618421879069"
      },
      "geometry": {
        "type": "Point",
        "coordinates": [
          -87.17022401838828,
          -70.94262040474624
        ]
      }
    },
    {
      "type": "Feature",
      "properties": {
        "norad_id": 35448,
        "name": "COSMOS 2251 DEB",
        "group": "cosmos-2251-debris",
        "lat": 31.094137865353574,
        "lon": -89.88818795721922,
        "alt_km": 715.3191596324723,
        "timestamp": "2025-12-07T03:52:32.898759+00:00",
        "meta_object_name": "COSMOS 2251 DEB",
        "meta_object_id": "1993-036AKS",
        "meta_epoch": "2025-12-05T14:52:31.418112",
        "meta_mean_motion": 14.54160371,
        "meta_eccentricity": 0.00112149,
        "meta_inclination": 73.9027,
        "meta_ra_of_asc_node": 103.0785,
        "meta_arg_of_pericenter": 283.351,
        "meta_mean_anomaly": 76.6401,
        "meta_ephemeris_type": 0,
        "meta_classification_type": "U",
        "meta_norad_cat_id": 35448,
        "meta_element_set_no": 999,
        "meta_rev_at_epoch": 87231,
        "meta_bstar": 0.0022626974,
        "meta_mean_motion_dot": 9.564e-05,
        "meta_mean_motion_ddot": 0,
        "tle_line1": "1 35448U 93036AKS 25339.61980808  .00009564  00000+0  22627-2 0  9991",
        "tle_line2": "2 35448  73.9027 103.0785 0011214 283.3510  76.6401 14.54160371872316"
      },
      "geometry": {
        "type": "Point",
        "coordinates": [
          -89.88818795721922,
          31.094137865353574
        ]
      }
    },
    {
      "type": "Feature",
      "properties": {
        "norad_id": 35451,
        "name": "COSMOS 2251 DEB",
        "group": "cosmos-2251-debris",
        "lat": -14.297850281775249,
        "lon": 110.49805260222186,
        "alt_km": 439.58140071916387,
        "timestamp": "2025-12-07T03:52:32.898769+00:00",
        "meta_object_name": "COSMOS 2251 DEB",
        "meta_object_id": "1993-036AKV",
        "meta_epoch": "2025-12-06T15:25:27.582240",
        "meta_mean_motion": 15.34695417,
        "meta_eccentricity": 0.00402272,
        "meta_inclination": 73.932,
        "meta_ra_of_asc_node": 115.8295,
        "meta_arg_of_pericenter": 3.0186,
        "meta_mean_anomaly": 357.1253,
        "meta_ephemeris_type": 0,
        "meta_classification_type": "U",
        "meta_norad_cat_id": 35451,
        "meta_element_set_no": 999,
        "meta_rev_at_epoch": 67312,
        "meta_bstar": 0.0023728301,
        "meta_mean_motion_dot": 0.00082777,
        "meta_mean_motion_ddot": 0,
        "tle_line1": "1 35451U 93036AKV 25340.64268035  .00082777  00000+0  23728-2 0  9991",
        "tle_line2": "2 35451  73.9320 115.8295 0040227   3.0186 357.1253 15.34695417673128"
      },
      "geometry": {
        "type": "Point",
        "coordinates": [
          110.49805260222186,
          -14.297850281775249
        ]
      }
    }
  ]
}